COSMOS 2493 (SKRL-756 1)
1 39490U 13078A   26068.88109627  .00005252  00000+0  40276-3 0  9992
2 39490  82.4165 358.3033 0011855 214.7485 145.2966 15.01584319663059
STARLINK-36221          
1 67215U 25304Z   26068.70439357 -.00005012  00000+0 -41268-3 0  9998
2 67215  70.0026 174.5449 0004158 274.6212  85.4472 14.98316025 13883
