[{"OBJECT_NAME":"COSMOS 2493 (SKRL-756 1)","OBJECT_ID":"2013-078A","EPOCH":"2026-03-09T21:08:46.717728","MEAN_MOTION":15.01584319,"ECCENTRICITY":0.00118545,"INCLINATION":82.4165,"RA_OF_ASC_NODE":358.3033,"ARG_OF_PERICENTER":214.7485,"MEAN_ANOMALY":145.2966,"EPHEMERIS_TYPE":0,"CLASSIFICATION_TYPE":"U","NORAD_CAT_ID":39490,"ELEMENT_SET_NO":999,"REV_AT_EPOCH":66305,"BSTAR":0.00040276291,"MEAN_MOTION_DOT":5.252e-5,"MEAN_MOTION_DDOT":0},{"OBJECT_NAME":"STARLINK-36221","OBJECT_ID":"2025-304Z","EPOCH":"2026-03-09T16:54:19.604448","MEAN_MOTION":14.98316025,"ECCENTRICITY":0.00041576,"INCLINATION":70.0026,"RA_OF_ASC_NODE":174.5449,"ARG_OF_PERICENTER":274.6212,"MEAN_ANOMALY":85.4472,"EPHEMERIS_TYPE":0,"CLASSIFICATION_TYPE":"U","NORAD_CAT_ID":67215,"ELEMENT_SET_NO":999,"REV_AT_EPOCH":1388,"BSTAR":-0.00041268394,"MEAN_MOTION_DOT":-5.012e-5,"MEAN_MOTION_DDOT":0}]
